COSMOS 1933             
1 18958U 88020A   26055.07834860  .00003536  00000+0  17326-3 0  9991
2 18958  82.5101 264.3809 0002760 239.6698 120.4263 15.17846732 48161
SL-3 R/B                
1 19046U 88032B   26055.23545965  .00006253  00000+0  29370-3 0  9997
2 19046  97.5174  38.5384 0024153 282.1408  77.7121 15.19724151 50068
SL-16 R/B               
1 19120U 88039B   26055.24008173 -.00000052  00000+0 -15825-5 0  9998
2 19120  71.0133  96.9897 0021949 354.4226   5.6651 14.19613654956473
COSMOS 1953             
1 19210U 88050A   26055.26958176  .00009496  00000+0  34322-3 0  9990
2 19210  82.5098 171.7362 0011719 166.7830 193.3719 15.28246378 35731
SL-8 R/B                
1 19257U 88053B   26055.30854501  .00000231  00000+0  83351-4 0  9991
2 19257  74.0480 137.1305 0021020 318.5279 107.0200 14.38906944974670
COSMOS 1975             
1 19573U 88093A   26055.23400849  .00007867  00000+0  28793-3 0  9990
2 19573  82.5204 131.1881 0010939 211.1961 148.8630 15.27827522 17351
SL-14 R/B               
1 19574U 88093B   26055.20093674  .00000483  00000+0  52740-4 0  9999
2 19574  82.5283  54.7086 0022332  83.3485  26.7958 14.85637936999038
SL-16 R/B               
1 19650U 88102B   26055.06046308 -.00000229  00000+0 -91722-4 0  9994
2 19650  71.0002 180.1713 0013176  22.4643 337.7055 14.16151142924969
INTERCOSMOS 24          
1 20261U 89080A   26055.22030520  .00000624  00000+0  18405-3 0  9990
2 20261  82.6044 113.1742 1187110 324.1131  28.5540 12.59535407665103
SL-14 R/B               
1 20262U 89080C   26055.27256195  .00000608  00000+0  18170-3 0  9995
2 20262  82.5967 181.7972 1230021 215.4171 135.8908 12.50474061658470
DELTA 1 R/B             
1 20323U 89089B   26055.17041836  .00000293  00000+0  81101-4 0  9990
2 20323  97.0714 264.7586 0069520 164.2133 196.1254 14.50650324893772
ARIANE 40 R/B           
1 20443U 90005H   26055.19322781  .00000233  00000+0  87525-4 0  9996
2 20443  98.3115 116.2549 0009107 241.5792 118.4479 14.39860434890864
