CCSDS_OMM_VERS = 2.0
CREATION_DATE  = 
ORIGINATOR     = 

OBJECT_NAME    = COSMOS 1933
OBJECT_ID      = 1988-020A
CENTER_NAME    = EARTH
REF_FRAME      = TEME
TIME_SYSTEM    = UTC
MEAN_ELEMENT_THEORY = SGP/SGP4

EPOCH          = 2026-02-24T01:52:49.319040
MEAN_MOTION    = 15.17846732
ECCENTRICITY   = .00027604
INCLINATION    = 82.5101
RA_OF_ASC_NODE = 264.3809
ARG_OF_PERICENTER = 239.6698
MEAN_ANOMALY   = 120.4263

EPHEMERIS_TYPE = 0
CLASSIFICATION_TYPE = U
NORAD_CAT_ID   = 18958
ELEMENT_SET_NO = 999
REV_AT_EPOCH   = 4816
BSTAR          = .17326384E-3
MEAN_MOTION_DOT = .3536E-4
MEAN_MOTION_DDOT = 0

CCSDS_OMM_VERS = 2.0
CREATION_DATE  = 
ORIGINATOR     = 

OBJECT_NAME    = SL-3 R/B
OBJECT_ID      = 1988-032B
CENTER_NAME    = EARTH
REF_FRAME      = TEME
TIME_SYSTEM    = UTC
MEAN_ELEMENT_THEORY = SGP/SGP4

EPOCH          = 2026-02-24T05:39:03.713760
MEAN_MOTION    = 15.19724151
ECCENTRICITY   = .00241537
INCLINATION    = 97.5174
RA_OF_ASC_NODE = 38.5384
ARG_OF_PERICENTER = 282.1408
MEAN_ANOMALY   = 77.7121

EPHEMERIS_TYPE = 0
CLASSIFICATION_TYPE = U
NORAD_CAT_ID   = 19046
ELEMENT_SET_NO = 999
REV_AT_EPOCH   = 5006
BSTAR          = .29370471E-3
MEAN_MOTION_DOT = .6253E-4
MEAN_MOTION_DDOT = 0

CCSDS_OMM_VERS = 2.0
CREATION_DATE  = 
ORIGINATOR     = 

OBJECT_NAME    = SL-16 R/B
OBJECT_ID      = 1988-039B
CENTER_NAME    = EARTH
REF_FRAME      = TEME
TIME_SYSTEM    = UTC
MEAN_ELEMENT_THEORY = SGP/SGP4

EPOCH          = 2026-02-24T05:45:43.061472
MEAN_MOTION    = 14.19613654
ECCENTRICITY   = .0021949
INCLINATION    = 71.0133
RA_OF_ASC_NODE = 96.9897
ARG_OF_PERICENTER = 354.4226
MEAN_ANOMALY   = 5.6651

EPHEMERIS_TYPE = 0
CLASSIFICATION_TYPE = U
NORAD_CAT_ID   = 19120
ELEMENT_SET_NO = 999
REV_AT_EPOCH   = 95647
BSTAR          = -.1582545E-5
MEAN_MOTION_DOT = -.52E-6
MEAN_MOTION_DDOT = 0

CCSDS_OMM_VERS = 2.0
CREATION_DATE  = 
ORIGINATOR     = 

OBJECT_NAME    = COSMOS 1953
OBJECT_ID      = 1988-050A
CENTER_NAME    = EARTH
REF_FRAME      = TEME
TIME_SYSTEM    = UTC
MEAN_ELEMENT_THEORY = SGP/SGP4

EPOCH          = 2026-02-24T06:28:11.864064
MEAN_MOTION    = 15.28246378
ECCENTRICITY   = .00117192
INCLINATION    = 82.5098
RA_OF_ASC_NODE = 171.7362
ARG_OF_PERICENTER = 166.7830
MEAN_ANOMALY   = 193.3719

EPHEMERIS_TYPE = 0
CLASSIFICATION_TYPE = U
NORAD_CAT_ID   = 19210
ELEMENT_SET_NO = 999
REV_AT_EPOCH   = 3573
BSTAR          = .3432155E-3
MEAN_MOTION_DOT = .9496E-4
MEAN_MOTION_DDOT = 0

CCSDS_OMM_VERS = 2.0
CREATION_DATE  = 
ORIGINATOR     = 

OBJECT_NAME    = SL-8 R/B
OBJECT_ID      = 1988-053B
CENTER_NAME    = EARTH
REF_FRAME      = TEME
TIME_SYSTEM    = UTC
MEAN_ELEMENT_THEORY = SGP/SGP4

EPOCH          = 2026-02-24T07:24:18.288864
MEAN_MOTION    = 14.38906944
ECCENTRICITY   = .00210202
INCLINATION    = 74.0480
RA_OF_ASC_NODE = 137.1305
ARG_OF_PERICENTER = 318.5279
MEAN_ANOMALY   = 107.0200

EPHEMERIS_TYPE = 0
CLASSIFICATION_TYPE = U
NORAD_CAT_ID   = 19257
ELEMENT_SET_NO = 999
REV_AT_EPOCH   = 97467
BSTAR          = .83350768E-4
MEAN_MOTION_DOT = .231E-5
MEAN_MOTION_DDOT = 0

CCSDS_OMM_VERS = 2.0
CREATION_DATE  = 
ORIGINATOR     = 

OBJECT_NAME    = COSMOS 1975
OBJECT_ID      = 1988-093A
CENTER_NAME    = EARTH
REF_FRAME      = TEME
TIME_SYSTEM    = UTC
MEAN_ELEMENT_THEORY = SGP/SGP4

EPOCH          = 2026-02-24T05:36:58.333536
MEAN_MOTION    = 15.27827522
ECCENTRICITY   = .00109394
INCLINATION    = 82.5204
RA_OF_ASC_NODE = 131.1881
ARG_OF_PERICENTER = 211.1961
MEAN_ANOMALY   = 148.8630

EPHEMERIS_TYPE = 0
CLASSIFICATION_TYPE = U
NORAD_CAT_ID   = 19573
ELEMENT_SET_NO = 999
REV_AT_EPOCH   = 1735
BSTAR          = .28792636E-3
MEAN_MOTION_DOT = .7867E-4
MEAN_MOTION_DDOT = 0

CCSDS_OMM_VERS = 2.0
CREATION_DATE  = 
ORIGINATOR     = 

OBJECT_NAME    = SL-14 R/B
OBJECT_ID      = 1988-093B
CENTER_NAME    = EARTH
REF_FRAME      = TEME
TIME_SYSTEM    = UTC
MEAN_ELEMENT_THEORY = SGP/SGP4

EPOCH          = 2026-02-24T04:49:20.934336
MEAN_MOTION    = 14.85637936
ECCENTRICITY   = .00223322
INCLINATION    = 82.5283
RA_OF_ASC_NODE = 54.7086
ARG_OF_PERICENTER = 83.3485
MEAN_ANOMALY   = 26.7958

EPHEMERIS_TYPE = 0
CLASSIFICATION_TYPE = U
NORAD_CAT_ID   = 19574
ELEMENT_SET_NO = 999
REV_AT_EPOCH   = 99903
BSTAR          = .52739937E-4
MEAN_MOTION_DOT = .483E-5
MEAN_MOTION_DDOT = 0

CCSDS_OMM_VERS = 2.0
CREATION_DATE  = 
ORIGINATOR     = 

OBJECT_NAME    = SL-16 R/B
OBJECT_ID      = 1988-102B
CENTER_NAME    = EARTH
REF_FRAME      = TEME
TIME_SYSTEM    = UTC
MEAN_ELEMENT_THEORY = SGP/SGP4

EPOCH          = 2026-02-24T01:27:04.010112
MEAN_MOTION    = 14.16151142
ECCENTRICITY   = .00131765
INCLINATION    = 71.0002
RA_OF_ASC_NODE = 180.1713
ARG_OF_PERICENTER = 22.4643
MEAN_ANOMALY   = 337.7055

EPHEMERIS_TYPE = 0
CLASSIFICATION_TYPE = U
NORAD_CAT_ID   = 19650
ELEMENT_SET_NO = 999
REV_AT_EPOCH   = 92496
BSTAR          = -.91721639E-4
MEAN_MOTION_DOT = -.229E-5
MEAN_MOTION_DDOT = 0

CCSDS_OMM_VERS = 2.0
CREATION_DATE  = 
ORIGINATOR     = 

OBJECT_NAME    = INTERCOSMOS 24
OBJECT_ID      = 1989-080A
CENTER_NAME    = EARTH
REF_FRAME      = TEME
TIME_SYSTEM    = UTC
MEAN_ELEMENT_THEORY = SGP/SGP4

EPOCH          = 2026-02-24T05:17:14.369280
MEAN_MOTION    = 12.59535407
ECCENTRICITY   = .11871104
INCLINATION    = 82.6044
RA_OF_ASC_NODE = 113.1742
ARG_OF_PERICENTER = 324.1131
MEAN_ANOMALY   = 28.5540

EPHEMERIS_TYPE = 0
CLASSIFICATION_TYPE = U
NORAD_CAT_ID   = 20261
ELEMENT_SET_NO = 999
REV_AT_EPOCH   = 66510
BSTAR          = .18405143E-3
MEAN_MOTION_DOT = .624E-5
MEAN_MOTION_DDOT = 0

CCSDS_OMM_VERS = 2.0
CREATION_DATE  = 
ORIGINATOR     = 

OBJECT_NAME    = SL-14 R/B
OBJECT_ID      = 1989-080C
CENTER_NAME    = EARTH
REF_FRAME      = TEME
TIME_SYSTEM    = UTC
MEAN_ELEMENT_THEORY = SGP/SGP4

EPOCH          = 2026-02-24T06:32:29.352480
MEAN_MOTION    = 12.50474061
ECCENTRICITY   = .1230021
INCLINATION    = 82.5967
RA_OF_ASC_NODE = 181.7972
ARG_OF_PERICENTER = 215.4171
MEAN_ANOMALY   = 135.8908

EPHEMERIS_TYPE = 0
CLASSIFICATION_TYPE = U
NORAD_CAT_ID   = 20262
ELEMENT_SET_NO = 999
REV_AT_EPOCH   = 65847
BSTAR          = .1817034E-3
MEAN_MOTION_DOT = .608E-5
MEAN_MOTION_DDOT = 0

CCSDS_OMM_VERS = 2.0
CREATION_DATE  = 
ORIGINATOR     = 

OBJECT_NAME    = DELTA 1 R/B
OBJECT_ID      = 1989-089B
CENTER_NAME    = EARTH
REF_FRAME      = TEME
TIME_SYSTEM    = UTC
MEAN_ELEMENT_THEORY = SGP/SGP4

EPOCH          = 2026-02-24T04:05:24.146304
MEAN_MOTION    = 14.50650324
ECCENTRICITY   = .00695203
INCLINATION    = 97.0714
RA_OF_ASC_NODE = 264.7586
ARG_OF_PERICENTER = 164.2133
MEAN_ANOMALY   = 196.1254

EPHEMERIS_TYPE = 0
CLASSIFICATION_TYPE = U
NORAD_CAT_ID   = 20323
ELEMENT_SET_NO = 999
REV_AT_EPOCH   = 89377
BSTAR          = .81100686E-4
MEAN_MOTION_DOT = .293E-5
MEAN_MOTION_DDOT = 0

CCSDS_OMM_VERS = 2.0
CREATION_DATE  = 
ORIGINATOR     = 

OBJECT_NAME    = ARIANE 40 R/B
OBJECT_ID      = 1990-005H
CENTER_NAME    = EARTH
REF_FRAME      = TEME
TIME_SYSTEM    = UTC
MEAN_ELEMENT_THEORY = SGP/SGP4

EPOCH          = 2026-02-24T04:38:14.882784
MEAN_MOTION    = 14.39860434
ECCENTRICITY   = .00091071
INCLINATION    = 98.3115
RA_OF_ASC_NODE = 116.2549
ARG_OF_PERICENTER = 241.5792
MEAN_ANOMALY   = 118.4479

EPHEMERIS_TYPE = 0
CLASSIFICATION_TYPE = U
NORAD_CAT_ID   = 20443
ELEMENT_SET_NO = 999
REV_AT_EPOCH   = 89086
BSTAR          = .87524992E-4
MEAN_MOTION_DOT = .233E-5
MEAN_MOTION_DDOT = 0

